KUIPER-00079            
1 64826U 25151L   25307.92264780  .00003742  00000+0  51949-3 0  9991
2 64826  51.8970 136.4116 0012166 177.3706 182.7323 14.79925018 17883
KUIPER-00080            
1 64827U 25151M   25307.91818133  .00003769  00000+0  52314-3 0  9994
2 64827  51.8970 136.7344 0005471 195.2167 164.8632 14.79934109 16683
KUIPER-00082            
1 64828U 25151N   25307.89791566 -.00004167  00000+0 -51815-3 0  9992
2 64828  51.8989 124.3308 0004634 210.5653 149.5040 14.79894988 16850
KUIPER-00083            
1 64829U 25151P   25307.88978288  .00003912  00000+0  54188-3 0  9991
2 64829  51.8983 131.8672 0010604 183.9901 176.0979 14.79923311 17934
KUIPER-00084            
1 64830U 25151Q   25307.94656364  .00003711  00000+0  51544-3 0  9998
2 64830  51.8979 141.6034 0012113 155.4005 204.7537 14.79917885 16610
KUIPER-00085            
1 64831U 25151R   25307.93159695 -.00003960  00000+0 -49041-3 0  9990
2 64831  51.9030 124.1919 0007673 189.6669 170.4147 14.79919189 16859
KUIPER-00086            
1 64832U 25151S   25307.92088232  .00004628  00000+0  63424-3 0  9999
2 64832  51.9033 134.2281 0011463 177.2578 182.8450 14.80008716 16717
KUIPER-00087            
1 64833U 25151T   25307.91670139  .00042946  00000+0  34434-2 0  9995
2 64833  51.8902 117.7442 0003435 202.4169 239.4920 14.99686959  3857
